NORAD_CAT_ID,OBJECT_NAME,OBJECT_TYPE,EPOCH,MEAN_MOTION,ECCENTRICITY,INCLINATION,RA_OF_ASC_NODE,ARG_OF_PERICENTER,MEAN_ANOMALY,BSTAR,MEAN_MOTION_DOT,MEAN_MOTION_DDOT,TLE_LINE0,TLE_LINE1,TLE_LINE2,SEMIMAJOR_AXIS,PERIOD,APOGEE,PERIGEE,DECAYED
51803.0,STARLINK-3544,PAYLOAD,2023-05-16 13:30:41,15.08834196,0.0001138,53.217,284.5619,86.1175,273.9947,5.3084e-05,5.57e-06,0.0,0 STARLINK-3544,1 51803U 22017AM  23136.56297948  .00000557  00000-0  53084-4 0  9995,2 51803  53.2170 284.5619 0001138  86.1175 273.9947 15.08834196 68700,6917.898,95.438,540.55,538.976,0.0
51803.0,STARLINK-3544,PAYLOAD,2023-05-16 16:41:27,15.08836884,0.0001095,53.2172,283.9665,89.8749,270.2368,8.468e-05,1.06e-05,0.0,0 STARLINK-3544,1 51803U 22017AM  23136.69545691  .00001060  00000-0  84680-4 0  9996,2 51803  53.2172 283.9665 0001095  89.8749 270.2368 15.08836884 68720,6917.89,95.438,540.512,538.997,0.0
51803.0,STARLINK-3544,PAYLOAD,2023-05-17 16:32:14,15.08836238,0.0001091,53.2174,279.5077,96.0928,264.0188,3.2955e-05,2.37e-06,0.0,0 STARLINK-3544,1 51803U 22017AM  23137.68906053  .00000237  00000-0  32955-4 0  9992,2 51803  53.2174 279.5077 0001091  96.0928 264.0188 15.08836238 68875,6917.892,95.438,540.512,539.002,0.0
51803.0,STARLINK-3544,PAYLOAD,2023-05-18 02:04:33,15.08841256,0.0001059,53.2173,277.7237,93.4096,266.7017,4.7404e-06,-2.12e-06,0.0,0 STARLINK-3544,1 51803U 22017AM  23138.08649826 -.00000212  00000-0  47404-5 0  9999,2 51803  53.2173 277.7237 0001059  93.4096 266.7017 15.08841256 68936,6917.877,95.437,540.474,539.009,0.0
51803.0,STARLINK-3544,PAYLOAD,2023-05-18 10:01:29,15.08832585,0.0001332,53.2189,276.241,113.6394,246.4738,7.4162e-07,-2.76e-06,0.0,0 STARLINK-3544,1 51803U 22017AM  23138.41770586 -.00000276  00000-0  74162-6 0  9996,2 51803  53.2189 276.2410 0001332 113.6394 246.4738 15.08832585 68985,6917.903,95.438,540.69,538.847,0.0
51803.0,STARLINK-3544,PAYLOAD,2023-05-18 13:12:16,15.08822977,9.37e-05,53.2173,275.6389,90.3291,269.7809,-0.00010872,-2.017e-05,0.0,0 STARLINK-3544,1 51803U 22017AM  23138.55019579 -.00002017  00000-0 -10872-3 0  9990,2 51803  53.2173 275.6389 0000937  90.3291 269.7809 15.08822977 69008,6917.932,95.439,540.446,539.149,0.0
51803.0,STARLINK-3544,PAYLOAD,2023-05-18 16:23:03,15.08820668,7.74e-05,53.2155,275.0428,71.7668,288.3409,-0.00012546,-2.283e-05,0.0,0 STARLINK-3544,1 51803U 22017AM  23138.68267903 -.00002283  00000-0 -12546-3 0  9995,2 51803  53.2155 275.0428 0000774  71.7668 288.3409 15.08820668 69026,6917.939,95.439,540.34,539.269,0.0
51803.0,STARLINK-3544,PAYLOAD,2023-05-18 17:58:26,15.0881976,8.02e-05,53.2162,274.7471,84.1346,275.9738,-0.00012636,-2.297e-05,0.0,0 STARLINK-3544,1 51803U 22017AM  23138.74892058 -.00002297  00000-0 -12636-3 0  9992,2 51803  53.2162 274.7471 0000802  84.1346 275.9738 15.08819760 69030,6917.942,95.439,540.362,539.252,0.0
51803.0,STARLINK-3544,PAYLOAD,2023-05-19 08:16:54,15.08824261,9.38e-05,53.217,272.0723,82.8611,277.2487,1.71e-05,-1.6e-07,0.0,0 STARLINK-3544,1 51803U 22017AM  23139.34508077 -.00000016  00000-0  17100-4 0  9992,2 51803  53.2170 272.0723 0000938  82.8611 277.2487 15.08824261 69128,6917.928,95.439,540.442,539.145,0.0
51803.0,STARLINK-3544,PAYLOAD,2023-05-20 01:46:08,15.08841449,9.01e-05,53.2162,268.8002,79.1036,281.0058,8.9983e-05,1.145e-05,0.0,0 STARLINK-3544,1 51803U 22017AM  23140.07371119  .00001145  00000-0  89983-4 0  9990,2 51803  53.2162 268.8002 0000901  79.1036 281.0058 15.08841449 69238,6917.876,95.437,540.364,539.118,0.0
51803.0,STARLINK-3544,PAYLOAD,2023-05-20 08:07:40,15.08855367,7.58e-05,53.2174,267.6107,79.0143,281.0934,0.00011864,1.602e-05,0.0,0 STARLINK-3544,1 51803U 22017AM  23140.33866160  .00001602  00000-0  11864-3 0  9994,2 51803  53.2174 267.6107 0000758  79.0143 281.0934 15.08855367 69273,6917.833,95.437,540.223,539.174,0.0
51803.0,STARLINK-3544,PAYLOAD,2023-05-20 16:04:35,15.08860164,9.76e-05,53.217,266.1241,64.1159,295.9934,0.00048137,7.386e-05,0.0,0 STARLINK-3544,1 51803U 22017AM  23140.66985042  .00007386  00000-0  48137-3 0  9999,2 51803  53.2170 266.1241 0000976  64.1159 295.9934 15.08860164 69327,6917.819,95.436,540.359,539.009,0.0
51803.0,STARLINK-3544,PAYLOAD,2023-05-21 01:36:54,15.08850013,6.98e-05,53.2173,264.3415,79.251,280.8561,0.00029867,4.47e-05,0.0,0 STARLINK-3544,1 51803U 22017AM  23141.06730101  .00004470  00000-0  29867-3 0  9998,2 51803  53.2173 264.3415 0000698  79.2510 280.8561 15.08850013 69389,6917.85,95.437,540.198,539.232,0.0
51803.0,STARLINK-3544,PAYLOAD,2023-05-21 07:58:28,15.08838605,8.68e-05,53.217,263.1521,83.2706,276.8385,4.8069e-05,4.77e-06,0.0,0 STARLINK-3544,1 51803U 22017AM  23141.33227094  .00000477  00000-0  48069-4 0  9999,2 51803  53.2170 263.1521 0000868  83.2706 276.8385 15.08838605 69429,6917.885,95.438,540.35,539.149,0.0
51803.0,STARLINK-3544,PAYLOAD,2023-05-21 17:30:46,15.08852007,8.52e-05,53.2159,261.3664,92.0778,268.0311,8.8574e-05,1.123e-05,0.0,0 STARLINK-3544,1 51803U 22017AM  23141.72970071  .00001123  00000-0  88574-4 0  9996,2 51803  53.2159 261.3664 0000852  92.0778 268.0311 15.08852007 69484,6917.844,95.437,540.298,539.119,0.0
51803.0,STARLINK-3544,PAYLOAD,2023-05-22 01:27:42,15.08839817,9.31e-05,53.2152,259.8797,73.5904,286.519,0.00038973,5.92e-05,0.0,0 STARLINK-3544,1 51803U 22017AM  23142.06090511  .00005920  00000-0  38973-3 0  9992,2 51803  53.2152 259.8797 0000931  73.5904 286.5190 15.08839817 69539,6917.881,95.438,540.39,539.102,0.0
51803.0,STARLINK-3544,PAYLOAD,2023-05-22 14:10:47,15.08848174,8.33e-05,53.2149,257.4996,94.5708,265.5379,0.00053095,8.174e-05,0.0,0 STARLINK-3544,1 51803U 22017AM  23142.59082371  .00008174  00000-0  53095-3 0  9991,2 51803  53.2149 257.4996 0000833  94.5708 265.5379 15.08848174 69617,6917.855,95.437,540.297,539.144,0.0
51803.0,STARLINK-3544,PAYLOAD,2023-05-22 17:21:33,15.08851139,8.63e-05,53.2154,256.9049,89.8386,270.2705,0.00066459,0.00010308,0.0,0 STARLINK-3544,1 51803U 22017AM  23142.72330318  .00010308  00000-0  66459-3 0  9993,2 51803  53.2154 256.9049 0000863  89.8386 270.2705 15.08851139 69631,6917.846,95.437,540.308,539.114,0.0
51803.0,STARLINK-3544,PAYLOAD,2023-05-23 10:50:48,15.08842567,7.55e-05,53.2167,253.634,96.2805,263.8273,0.00026126,3.873e-05,0.0,0 STARLINK-3544,1 51803U 22017AM  23143.45194592  .00003873  00000-0  26126-3 0  9992,2 51803  53.2167 253.6340 0000755  96.2805 263.8273 15.08842567 69746,6917.873,95.437,540.26,539.215,0.0
51803.0,STARLINK-3544,PAYLOAD,2023-05-23 14:01:34,15.0884245,9.58e-05,53.2163,253.0405,96.1309,263.9792,0.00020009,2.898e-05,0.0,0 STARLINK-3544,1 51803U 22017AM  23143.58442591  .00002898  00000-0  20009-3 0  9991,2 51803  53.2163 253.0405 0000958  96.1309 263.9792 15.08842450 69761,6917.873,95.437,540.401,539.075,0.0
51803.0,STARLINK-3544,PAYLOAD,2023-05-24 07:30:48,15.08843149,0.0001016,53.2161,249.77,81.7967,278.3141,0.00014489,2.019e-05,0.0,0 STARLINK-3544,1 51803U 22017AM  23144.31306665  .00002019  00000-0  14489-3 0  9994,2 51803  53.2161 249.7700 0001016  81.7967 278.3141 15.08843149 69871,6917.871,95.437,540.439,539.033,0.0
51803.0,STARLINK-3544,PAYLOAD,2023-05-25 13:43:08,15.08843887,0.0001115,53.2152,244.1192,88.1887,271.9233,0.000133,1.83e-05,0.0,0 STARLINK-3544,1 51803U 22017AM  23145.57162173  .00001830  00000-0  13300-3 0  9998,2 51803  53.2152 244.1192 0001115  88.1887 271.9233 15.08843887 70060,6917.869,95.437,540.505,538.962,0.0
51803.0,STARLINK-3544,PAYLOAD,2023-05-26 13:33:55,15.08845516,0.0001326,53.2155,239.6595,103.9702,256.1437,1.2489e-05,-8.9e-07,0.0,0 STARLINK-3544,1 51803U 22017AM  23146.56522249 -.00000089  00000-0  12489-4 0  9996,2 51803  53.2155 239.6595 0001326 103.9702 256.1437 15.08845516 70214,6917.864,95.437,540.646,538.811,0.0
51803.0,STARLINK-3544,PAYLOAD,2023-05-26 15:09:18,15.08847831,0.0001293,53.2155,239.362,105.201,254.9125,-7.0228e-06,-4e-06,0.0,0 STARLINK-3544,1 51803U 22017AM  23146.63146090 -.00000400  00000-0 -70228-5 0  9994,2 51803  53.2155 239.3620 0001293 105.2010 254.9125 15.08847831 70223,6917.856,95.437,540.616,538.827,0.0
51803.0,STARLINK-3544,PAYLOAD,2023-05-27 15:00:05,15.08839968,0.0001185,53.2164,234.8996,97.8286,262.2841,-5.9016e-07,-2.97e-06,0.0,0 STARLINK-3544,1 51803U 22017AM  23147.62506615 -.00000297  00000-0 -59016-6 0  9994,2 51803  53.2164 234.8996 0001185  97.8286 262.2841 15.08839968 70375,6917.88,95.438,540.565,538.926,0.0
51803.0,STARLINK-3544,PAYLOAD,2023-05-27 22:57:01,15.0883696,0.0001103,53.2166,233.4125,88.6375,271.4743,3.5071e-05,2.7e-06,0.0,0 STARLINK-3544,1 51803U 22017AM  23147.95626857  .00000270  00000-0  35071-4 0  9993,2 51803  53.2166 233.4125 0001103  88.6375 271.4743 15.08836960 70421,6917.89,95.438,540.518,538.992,0.0
51803.0,STARLINK-3544,PAYLOAD,2023-05-28 13:15:29,15.08844546,0.0001032,53.2172,230.7367,88.7982,271.3129,9.8474e-05,1.28e-05,0.0,0 STARLINK-3544,1 51803U 22017AM  23148.55242655  .00001280  00000-0  98474-4 0  9998,2 51803  53.2172 230.7367 0001032  88.7982 271.3129 15.08844546 70518,6917.866,95.437,540.445,539.018,0.0
51803.0,STARLINK-3544,PAYLOAD,2023-05-28 22:47:48,15.08845579,0.0001028,53.2173,228.9534,86.9368,273.1741,0.00012285,1.668e-05,0.0,0 STARLINK-3544,1 51803U 22017AM  23148.94986493  .00001668  00000-0  12285-3 0  9991,2 51803  53.2173 228.9534 0001028  86.9368 273.1741 15.08845579 70570,6917.863,95.437,540.439,539.017,0.0
51803.0,STARLINK-3544,PAYLOAD,2023-05-29 11:30:53,15.08846342,9.99e-05,53.2164,226.5763,81.6318,278.4788,0.00013882,1.923e-05,0.0,0 STARLINK-3544,1 51803U 22017AM  23149.47978385  .00001923  00000-0  13882-3 0  9999,2 51803  53.2164 226.5763 0000999  81.6318 278.4788 15.08846342 70658,6917.861,95.437,540.417,539.035,0.0
51803.0,STARLINK-3544,PAYLOAD,2023-05-29 22:38:35,15.08843348,0.0001007,53.2153,224.4949,77.9202,282.1903,0.00011539,1.549e-05,0.0,0 STARLINK-3544,1 51803U 22017AM  23149.94346603  .00001549  00000-0  11539-3 0  9994,2 51803  53.2153 224.4949 0001007  77.9202 282.1903 15.08843348 70722,6917.87,95.437,540.432,539.039,0.0
